{
  "type": "FeatureCollection",
  "features": [
    {
      "type": "Feature",
      "properties": {
        "norad_id": 24946,
        "name": "IRIDIUM 33",
        "group": "iridium-33-debris",
        "lat": 62.12188726422768,
        "lon": 76.72944341929218,
        "alt_km": 773.1631022746751,
        "timestamp": "2025-12-08T19:31:49.192349+00:00",
        "meta_object_name": "IRIDIUM 33",
        "meta_object_id": "1997-051C",
        "meta_epoch": "2025-12-08T07:31:33.752640",
        "meta_mean_motion": 14.3503278,
        "meta_eccentricity": 0.0006551,
        "meta_inclination": 86.387,
        "meta_ra_of_asc_node": 70.0794,
        "meta_arg_of_pericenter": 216.8885,
        "meta_mean_anomaly": 143.1862,
        "meta_ephemeris_type": 0,
        "meta_classification_type": "U",
        "meta_norad_cat_id": 24946,
        "meta_element_set_no": 999,
        "meta_rev_at_epoch": 47771,
        "meta_bstar": 0.00023633187,
        "meta_mean_motion_dot": 6.93e-06,
        "meta_mean_motion_ddot": 0,
        "tle_line1": "1 24946U 97051C   25342.31358510  .00000693  00000+0  23633-3 0  9996",
        "tle_line2": "2 24946  86.3870  70.0794 0006551 216.8885 143.1862 14.35032780477715"
      },
      "geometry": {
        "type": "Point",
        "coordinates": [
          76.72944341929218,
          62.12188726422768
        ]
      }
    },
    {
      "type": "Feature",
      "properties": {
        "norad_id": 33773,
        "name": "IRIDIUM 33 DEB",
        "group": "iridium-33-debris",
        "lat": -82.68470534244376,
        "lon": -88.39199662415427,
        "alt_km": 757.565366336662,
        "timestamp": "2025-12-08T19:31:49.192390+00:00",
        "meta_object_name": "IRIDIUM 33 DEB",
        "meta_object_id": "1997-051L",
        "meta_epoch": "2025-12-08T06:39:55.415808",
        "meta_mean_motion": 14.43242992,
        "meta_eccentricity": 0.00120848,
        "meta_inclination": 86.4014,
        "meta_ra_of_asc_node": 62.4803,
        "meta_arg_of_pericenter": 159.7195,
        "meta_mean_anomaly": 200.4489,
        "meta_ephemeris_type": 0,
        "meta_classification_type": "U",
        "meta_norad_cat_id": 33773,
        "meta_element_set_no": 999,
        "meta_rev_at_epoch": 88283,
        "meta_bstar": 0.00058989165,
        "meta_mean_motion_dot": 2.005e-05,
        "meta_mean_motion_ddot": 0,
        "tle_line1": "1 33773U 97051L   25342.27772472  .00002005  00000+0  58989-3 0  9997",
        "tle_line2": "2 33773  86.4014  62.4803 0012084 159.7195 200.4489 14.43242992882839"
      },
      "geometry": {
        "type": "Point",
        "coordinates": [
          -88.39199662415427,
          -82.68470534244376
        ]
      }
    },
    {
      "type": "Feature",
      "properties": {
        "norad_id": 33775,
        "name": "IRIDIUM 33 DEB",
        "group": "iridium-33-debris",
        "lat": 12.011146204008908,
        "lon": 52.00475044504564,
        "alt_km": 763.9352752891073,
        "timestamp": "2025-12-08T19:31:49.192404+00:00",
        "meta_object_name": "IRIDIUM 33 DEB",
        "meta_object_id": "1997-051N",
        "meta_epoch": "2025-12-08T06:28:37.020288",
        "meta_mean_motion": 14.41454462,
        "meta_eccentricity": 0.00137722,
        "meta_inclination": 86.3641,
        "meta_ra_of_asc_node": 51.4617,
        "meta_arg_of_pericenter": 168.5909,
        "meta_mean_anomaly": 263.042,
        "meta_ephemeris_type": 0,
        "meta_classification_type": "U",
        "meta_norad_cat_id": 33775,
        "meta_element_set_no": 999,
        "meta_rev_at_epoch": 88076,
        "meta_bstar": 0.00063285895,
        "meta_mean_motion_dot": 2.074e-05,
        "meta_mean_motion_ddot": 0,
        "tle_line1": "1 33775U 97051N   25342.26987292  .00002074  00000+0  63286-3 0  9998",
        "tle_line2": "2 33775  86.3641  51.4617 0013772 168.5909 263.0420 14.41454462880768"
      },
      "geometry": {
        "type": "Point",
        "coordinates": [
          52.00475044504564,
          12.011146204008908
        ]
      }
    },
    {
      "type": "Feature",
      "properties": {
        "norad_id": 33776,
        "name": "IRIDIUM 33 DEB",
        "group": "iridium-33-debris",
        "lat": -71.99685315656912,
        "lon": 71.26608728446763,
        "alt_km": 770.6948062714691,
        "timestamp": "2025-12-08T19:31:49.192416+00:00",
        "meta_object_name": "IRIDIUM 33 DEB",
        "meta_object_id": "1997-051P",
        "meta_epoch": "2025-12-08T06:47:28.218336",
        "meta_mean_motion": 14.38223227,
        "meta_eccentricity": 0.00138237,
        "meta_inclination": 86.4037,
        "meta_ra_of_asc_node": 82.6473,
        "meta_arg_of_pericenter": 205.5419,
        "meta_mean_anomaly": 215.4704,
        "meta_ephemeris_type": 0,
        "meta_classification_type": "U",
        "meta_norad_cat_id": 33776,
        "meta_element_set_no": 999,
        "meta_rev_at_epoch": 88018,
        "meta_bstar": 0.0006296124,
        "meta_mean_motion_dot": 1.933e-05,
        "meta_mean_motion_ddot": 0,
        "tle_line1": "1 33776U 97051P   25342.28296549  .00001933  00000+0  62961-3 0  9991",
        "tle_line2": "2 33776  86.4037  82.6473 0013823 205.5419 215.4704 14.38223227880181"
      },
      "geometry": {
        "type": "Point",
        "coordinates": [
          71.26608728446763,
          -71.99685315656912
        ]
      }
    },
    {
      "type": "Feature",
      "properties": {
        "norad_id": 33777,
        "name": "IRIDIUM 33 DEB",
        "group": "iridium-33-debris",
        "lat": -10.250087382813653,
        "lon": -142.43260113626113,
        "alt_km": 711.1014130022377,
        "timestamp": "2025-12-08T19:31:49.192427+00:00",
        "meta_object_name": "IRIDIUM 33 DEB",
        "meta_object_id": "1997-051Q",
        "meta_epoch": "2025-12-08T05:27:34.689312",
        "meta_mean_motion": 14.55562851,
        "meta_eccentricity": 0.00050859,
        "meta_inclination": 86.3784,
        "meta_ra_of_asc_node": 37.1661,
        "meta_arg_of_pericenter": 270.4985,
        "meta_mean_anomaly": 89.5639,
        "meta_ephemeris_type": 0,
        "meta_classification_type": "U",
        "meta_norad_cat_id": 33777,
        "meta_element_set_no": 999,
        "meta_rev_at_epoch": 88468,
        "meta_bstar": 0.0013169276,
        "meta_mean_motion_dot": 5.76e-05,
        "meta_mean_motion_ddot": 0,
        "tle_line1": "1 33777U 97051Q   25342.22748483  .00005760  00000+0  13169-2 0  9992",
        "tle_line2": "2 33777  86.3784  37.1661 0005085 270.4985  89.5639 14.55562851884688"
      },
      "geometry": {
        "type": "Point",
        "coordinates": [
          -142.43260113626113,
          -10.250087382813653
        ]
      }
    },
    {
      "type": "Feature",
      "properties": {
        "norad_id": 33850,
        "name": "IRIDIUM 33 DEB",
        "group": "iridium-33-debris",
        "lat": -16.511306869534387,
        "lon": 30.781238242767856,
        "alt_km": 764.6792975373291,
        "timestamp": "2025-12-08T19:31:49.192438+00:00",
        "meta_object_name": "IRIDIUM 33 DEB",
        "meta_object_id": "1997-051T",
        "meta_epoch": "2025-12-08T04:54:50.357664",
        "meta_mean_motion": 14.42132512,
        "meta_eccentricity": 0.00117815,
        "meta_inclination": 86.3419,
        "meta_ra_of_asc_node": 32.1296,
        "meta_arg_of_pericenter": 175.0794,
        "meta_mean_anomaly": 248.6747,
        "meta_ephemeris_type": 0,
        "meta_classification_type": "U",
        "meta_norad_cat_id": 33850,
        "meta_element_set_no": 999,
        "meta_rev_at_epoch": 88087,
        "meta_bstar": 0.00050349407,
        "meta_mean_motion_dot": 1.676e-05,
        "meta_mean_motion_ddot": 0,
        "tle_line1": "1 33850U 97051T   25342.20474951  .00001676  00000+0  50349-3 0  9992",
        "tle_line2": "2 33850  86.3419  32.1296 0011781 175.0794 248.6747 14.42132512880870"
      },
      "geometry": {
        "type": "Point",
        "coordinates": [
          30.781238242767856,
          -16.511306869534387
        ]
      }
    },
    {
      "type": "Feature",
      "properties": {
        "norad_id": 33853,
        "name": "IRIDIUM 33 DEB",
        "group": "iridium-33-debris",
        "lat": -74.59245461594384,
        "lon": -173.75755017649726,
        "alt_km": 755.1342528462383,
        "timestamp": "2025-12-08T19:31:49.192449+00:00",
        "meta_object_name": "IRIDIUM 33 DEB",
        "meta_object_id": "1997-051W",
        "meta_epoch": "2025-12-08T01:24:38.034720",
        "meta_mean_motion": 13.99017813,
        "meta_eccentricity": 0.02068972,
        "meta_inclination": 85.9997,
        "meta_ra_of_asc_node": 351.864,
        "meta_arg_of_pericenter": 250.3093,
        "meta_mean_anomaly": 164.3037,
        "meta_ephemeris_type": 0,
        "meta_classification_type": "U",
        "meta_norad_cat_id": 33853,
        "meta_element_set_no": 999,
        "meta_rev_at_epoch": 85280,
        "meta_bstar": 0.002745939,
        "meta_mean_motion_dot": 4.783e-05,
        "meta_mean_motion_ddot": 0,
        "tle_line1": "1 33853U 97051W   25342.05877355  .00004783  00000+0  27459-2 0  9990",
        "tle_line2": "2 33853  85.9997 351.8640 0206897 250.3093 164.3037 13.99017813852801"
      },
      "geometry": {
        "type": "Point",
        "coordinates": [
          -173.75755017649726,
          -74.59245461594384
        ]
      }
    }
  ]
}